[{"id": "f5e19201-afa3-4032-9e1d-5b501c9d0c8e", "latitude": "5.934299471956952", "longitude": "-73.61576533067957", "temperature": "19", "pressure": "1,012", "localTime": "Thu Nov 23 2023 16:17:13 GMT-0500 (hora est\u00e1ndar de Colombia)", "julianTime": "1700774233", "utcTime": "4:17:21 PM", "altitude": "502.40", "elevation": "-42.6", "TLE": {"Norad_Id": 56205, "International_Classification": "Unclassified", "International_Designation": "23054AD", "Epoch_Time_(ISO)": "2023-11-23T12:24:09Z", "First_Derivative_Mean_Motion": 0.00016186, "Second_Derivative_Mean_Motion": 0.0, "Inclination": 97.3881, "Right_Ascension_of_the_Ascending_Node": 220.9092, "Eccentricity": 0.0013783, "Argument_of_Perigee": 158.2526, "Mean_Anomaly": 201.9301, "Mean_Motion": 15.2797665, "Revolution_Number_at_Epoch": 3448}}, {"id": "038464e2-b02b-4c44-a761-b61724acb5d1", "latitude": "5.934299471956952", "longitude": "-73.61576533067957", "temperature": "22", "pressure": "1,015", "localTime": "Mon Nov 27 2023 10:17:53 GMT-0500 (hora est\u00e1ndar de Colombia)", "julianTime": "1701098273", "utcTime": "10:18:02 AM", "altitude": "500.39", "elevation": "-7.1", "TLE": {"Norad_Id": 56205, "International_Classification": "Unclassified", "International_Designation": "23054AD", "Epoch_Time_(ISO)": "2023-11-27T02:50:35Z", "First_Derivative_Mean_Motion": 0.00018178000000000004, "Second_Derivative_Mean_Motion": 0.0, "Inclination": 97.38820000000001, "Right_Ascension_of_the_Ascending_Node": 224.4802, "Eccentricity": 0.0014266, "Argument_of_Perigee": 146.2165, "Mean_Anomaly": 213.9986, "Mean_Motion": 15.281353, "Revolution_Number_at_Epoch": 3503}}]